{
  "norad_id": 59637,
  "name": "STARLINK-31791",
  "history": [
    {
      "epoch": "2026-03-28T06:04:10.261056Z",
      "apogee_km": 483.83557096633103,
      "perigee_km": 482.2492662847444,
      "latitude_deg": 2.45695324501792e-05,
      "longitude_deg": 118.02116991943893,
      "height_km": 482.88298607219525,
      "semi_major_axis_km": 6861.179418625537,
      "eccentricity": 0.0001156,
      "inclination_deg": 43.0047,
      "raan_deg": 34.7399,
      "arg_perigee_deg": 265.4034,
      "mean_anomaly_deg": 94.6686,
      "mean_motion_rev_day": 15.2758223
    },
    {
      "epoch": "2026-03-29T04:02:21.588288Z",
      "apogee_km": 483.82888214809645,
      "perigee_km": 482.24943939588684,
      "latitude_deg": -2.445628114483779e-05,
      "longitude_deg": 142.40285247479528,
      "height_km": 482.7410428298427,
      "semi_major_axis_km": 6861.176160771992,
      "eccentricity": 0.0001151,
      "inclination_deg": 43.0045,
      "raan_deg": 29.5711,
      "arg_perigee_deg": 275.4583,
      "mean_anomaly_deg": 84.6137,
      "mean_motion_rev_day": 15.27583318
    },
    {
      "epoch": "2026-03-30T03:34:42.590784Z",
      "apogee_km": 483.910070652355,
      "perigee_km": 482.1728202699651,
      "latitude_deg": -6.112304062939924e-06,
      "longitude_deg": 142.80934297685573,
      "height_km": 482.88913073802917,
      "semi_major_axis_km": 6861.17844546116,
      "eccentricity": 0.0001266,
      "inclination_deg": 43.0045,
      "raan_deg": 24.0318,
      "arg_perigee_deg": 265.3375,
      "mean_anomaly_deg": 94.7332,
      "mean_motion_rev_day": 15.27582555
    },
    {
      "epoch": "2026-03-30T20:50:26.882016Z",
      "apogee_km": 483.8173897067172,
      "perigee_km": 482.5223866446431,
      "latitude_deg": 4.084817492872964e-05,
      "longitude_deg": -120.89439051492617,
      "height_km": 482.79640893654357,
      "semi_major_axis_km": 6861.30688817568,
      "eccentricity": 9.437e-05,
      "inclination_deg": 43.003,
      "raan_deg": 19.9715,
      "arg_perigee_deg": 283.4058,
      "mean_anomaly_deg": 76.6689,
      "mean_motion_rev_day": 15.27539661
    },
    {
      "epoch": "2026-03-31T04:41:13.277184Z",
      "apogee_km": 483.9418868588118,
      "perigee_km": 482.1124260481347,
      "latitude_deg": 4.145381425799466e-06,
      "longitude_deg": 119.24332473242355,
      "height_km": 482.8279267749398,
      "semi_major_axis_km": 6861.164156453473,
      "eccentricity": 0.00013332,
      "inclination_deg": 43.0037,
      "raan_deg": 18.1248,
      "arg_perigee_deg": 268.5143,
      "mean_anomaly_deg": 91.5556,
      "mean_motion_rev_day": 15.27587327
    },
    {
      "epoch": "2026-04-01T12:04:21.709056Z",
      "apogee_km": 483.80282224054827,
      "perigee_km": 482.3345242264759,
      "latitude_deg": -5.843110226295083e-05,
      "longitude_deg": -0.21483693440834048,
      "height_km": 482.7607309707277,
      "semi_major_axis_km": 6861.205673233511,
      "eccentricity": 0.000107,
      "inclination_deg": 43.0042,
      "raan_deg": 10.7408,
      "arg_perigee_deg": 276.6364,
      "mean_anomaly_deg": 83.4365,
      "mean_motion_rev_day": 15.27573462
    },
    {
      "epoch": "2026-04-02T11:36:41.400864Z",
      "apogee_km": 483.6686054461625,
      "perigee_km": 482.4176750829902,
      "latitude_deg": -1.8517694050562894e-06,
      "longitude_deg": 0.19707084543395698,
      "height_km": 482.7387798736363,
      "semi_major_axis_km": 6861.180140264576,
      "eccentricity": 9.116e-05,
      "inclination_deg": 43.002,
      "raan_deg": 5.2014,
      "arg_perigee_deg": 277.4288,
      "mean_anomaly_deg": 82.646,
      "mean_motion_rev_day": 15.27581989
    }
  ]
}